/vscmnt/brussel_pixiu_data/_data_brussel/112/vsc11236/PredSim/opensimAD_linux/InverseDynamics/Verify_F_SUBJ06opt3D_weighted5kg.mot
version=1
nRows=10
nColumns=22
inDegrees=no
endheader
                time	         pelvis_tilt	         pelvis_list	     pelvis_rotation	           pelvis_tx	           pelvis_ty	           pelvis_tz	       hip_flexion_r	     hip_adduction_r	      hip_rotation_r	        knee_angle_r	       ankle_angle_r	         mtp_angle_r	       hip_flexion_l	     hip_adduction_l	      hip_rotation_l	        knee_angle_l	       ankle_angle_l	         mtp_angle_l	    lumbar_extension	      lumbar_bending	     lumbar_rotation	
          0.01000000	          0.05000000	          0.05000000	          0.05000000	          0.05000000	         -0.05000000	          0.05000000	          0.05000000	          0.05000000	          0.05000000	          0.05000000	          0.05000000	          0.05000000	          0.05000000	          0.05000000	          0.05000000	          0.05000000	          0.05000000	          0.05000000	          0.05000000	          0.05000000	          0.05000000	
          0.02000000	          0.05000000	          0.05000000	          0.05000000	          0.05000000	         -0.05000000	          0.05000000	          0.05000000	          0.05000000	          0.05000000	          0.05000000	          0.05000000	          0.05000000	          0.05000000	          0.05000000	          0.05000000	          0.05000000	          0.05000000	          0.05000000	          0.05000000	          0.05000000	          0.05000000	
          0.03000000	          0.05000000	          0.05000000	          0.05000000	          0.05000000	         -0.05000000	          0.05000000	          0.05000000	          0.05000000	          0.05000000	          0.05000000	          0.05000000	          0.05000000	          0.05000000	          0.05000000	          0.05000000	          0.05000000	          0.05000000	          0.05000000	          0.05000000	          0.05000000	          0.05000000	
          0.04000000	          0.05000000	          0.05000000	          0.05000000	          0.05000000	         -0.05000000	          0.05000000	          0.05000000	          0.05000000	          0.05000000	          0.05000000	          0.05000000	          0.05000000	          0.05000000	          0.05000000	          0.05000000	          0.05000000	          0.05000000	          0.05000000	          0.05000000	          0.05000000	          0.05000000	
          0.05000000	          0.05000000	          0.05000000	          0.05000000	          0.05000000	         -0.05000000	          0.05000000	          0.05000000	          0.05000000	          0.05000000	          0.05000000	          0.05000000	          0.05000000	          0.05000000	          0.05000000	          0.05000000	          0.05000000	          0.05000000	          0.05000000	          0.05000000	          0.05000000	          0.05000000	
          0.06000000	          0.05000000	          0.05000000	          0.05000000	          0.05000000	         -0.05000000	          0.05000000	          0.05000000	          0.05000000	          0.05000000	          0.05000000	          0.05000000	          0.05000000	          0.05000000	          0.05000000	          0.05000000	          0.05000000	          0.05000000	          0.05000000	          0.05000000	          0.05000000	          0.05000000	
          0.07000000	          0.05000000	          0.05000000	          0.05000000	          0.05000000	         -0.05000000	          0.05000000	          0.05000000	          0.05000000	          0.05000000	          0.05000000	          0.05000000	          0.05000000	          0.05000000	          0.05000000	          0.05000000	          0.05000000	          0.05000000	          0.05000000	          0.05000000	          0.05000000	          0.05000000	
          0.08000000	          0.05000000	          0.05000000	          0.05000000	          0.05000000	         -0.05000000	          0.05000000	          0.05000000	          0.05000000	          0.05000000	          0.05000000	          0.05000000	          0.05000000	          0.05000000	          0.05000000	          0.05000000	          0.05000000	          0.05000000	          0.05000000	          0.05000000	          0.05000000	          0.05000000	
          0.09000000	          0.05000000	          0.05000000	          0.05000000	          0.05000000	         -0.05000000	          0.05000000	          0.05000000	          0.05000000	          0.05000000	          0.05000000	          0.05000000	          0.05000000	          0.05000000	          0.05000000	          0.05000000	          0.05000000	          0.05000000	          0.05000000	          0.05000000	          0.05000000	          0.05000000	
          0.10000000	          0.05000000	          0.05000000	          0.05000000	          0.05000000	         -0.05000000	          0.05000000	          0.05000000	          0.05000000	          0.05000000	          0.05000000	          0.05000000	          0.05000000	          0.05000000	          0.05000000	          0.05000000	          0.05000000	          0.05000000	          0.05000000	          0.05000000	          0.05000000	          0.05000000	
